DMSP 5D-3 F16 (USA 172) 
1 28054U 03048A   26061.98153789  .00000166  00000+0  11008-3 0  9994
2 28054  98.9998  85.0580 0008195  89.3480 296.5322 14.14458921154473
METEOSAT-9 (MSG-2)      
1 28912U 05049B   26061.59713272  .00000112  00000+0  00000+0 0  9993
2 28912   9.1208  55.1996 0001907 219.8462 145.9946  1.00276214  5936
DMSP 5D-3 F17 (USA 191) 
1 29522U 06050A   26061.96029279  .00000210  00000+0  13115-3 0  9996
2 29522  98.7411  70.6923 0010139   6.1625 353.9672 14.14960329997394
FENGYUN 3A              
1 32958U 08026A   26061.82771839  .00000118  00000+0  76469-4 0  9998
2 32958  98.6790   4.7076 0009830  75.9488 284.2781 14.19543813920319
GOES 14                 
1 35491U 09033A   26061.80600331  .00000114  00000+0  00000+0 0  9997
2 35491   1.4148  84.4440 0002164 295.3222 273.6553  1.00123439  5520
DMSP 5D-3 F18 (USA 210) 
1 35951U 09057A   26061.92332918  .00000308  00000+0  18275-3 0  9992
2 35951  98.8952  42.9758 0010750 187.6921 172.4089 14.14830688844569
EWS-G2 (GOES 15)        
1 36411U 10008A   26061.86055566  .00000005  00000+0  00000+0 0  9993
2 36411   1.0052  85.1762 0001654  24.0248  64.7263  1.00269153 58570
COMS 1                  
1 36744U 10032A   26061.81745456 -.00000359  00000+0  00000+0 0  9991
2 36744   4.5320  76.8967 0001163 272.6803 233.4605  1.00272530 50022
FENGYUN 3B              
1 37214U 10059A   26061.94947345 -.00000288  00000+0 -12549-3 0  9995
2 37214  98.9785 107.4452 0022952 126.3417 332.7903 14.14814091792404
SUOMI NPP               
1 37849U 11061A   26061.90620618  .00000091  00000+0  64082-4 0  9990
2 37849  98.7862   3.5631 0000451 295.5056  64.6073 14.19541223743364
METEOSAT-10 (MSG-3)     
1 38552U 12035B   26061.73080794 -.00000019  00000+0  00000+0 0  9996
2 38552   4.4198  61.4700 0002487 292.1297  70.2445  1.00276905 49793
METOP-B                 
1 38771U 12049A   26061.89867662  .00000143  00000+0  85371-4 0  9994
2 38771  98.6656 115.4497 0001241 303.3818  56.7241 14.21442020698168
INSAT-3D                
1 39216U 13038B   26061.59628306 -.00000356  00000+0  00000+0 0  9993
2 39216   1.6508  83.9377 0002164 236.3244 184.2293  1.00269239 46019
FENGYUN 3C              
1 39260U 13052A   26061.96172356  .00000160  00000+0  10275-3 0  9999
2 39260  98.4880  40.7737 0014167 333.4613  26.5835 14.15726371643536
METEOR-M 2              
1 40069U 14037A   26061.92576424  .00000168  00000+0  95925-4 0  9996
2 40069  98.5008  41.4863 0005759 357.5035   2.6114 14.21425205604225
HIMAWARI-8              
1 40267U 14060A   26061.83377823 -.00000292  00000+0  00000+0 0  9998
2 40267   0.0178 119.6241 0000868 185.8972 295.8861  1.00270021 41695
FENGYUN 2G              
1 40367U 14090A   26061.96444986 -.00000316  00000+0  00000+0 0  9998
2 40367   5.3702  74.1026 0002011 153.1126  20.3790  1.00274984 40934
