[{"OBJECT_NAME":"DMSP 5D-3 F16 (USA 172)","OBJECT_ID":"2003-048A","EPOCH":"2026-03-02T23:33:24.873696","MEAN_MOTION":14.14458921,"ECCENTRICITY":0.00081958,"INCLINATION":98.9998,"RA_OF_ASC_NODE":85.058,"ARG_OF_PERICENTER":89.348,"MEAN_ANOMALY":296.5322,"EPHEMERIS_TYPE":0,"CLASSIFICATION_TYPE":"U","NORAD_CAT_ID":28054,"ELEMENT_SET_NO":999,"REV_AT_EPOCH":15447,"BSTAR":0.00011008003,"MEAN_MOTION_DOT":1.66e-6,"MEAN_MOTION_DDOT":0},{"OBJECT_NAME":"METEOSAT-9 (MSG-2)","OBJECT_ID":"2005-049B","EPOCH":"2026-03-02T14:19:52.267008","MEAN_MOTION":1.00276214,"ECCENTRICITY":0.0001907,"INCLINATION":9.1208,"RA_OF_ASC_NODE":55.1996,"ARG_OF_PERICENTER":219.8462,"MEAN_ANOMALY":145.9946,"EPHEMERIS_TYPE":0,"CLASSIFICATION_TYPE":"U","NORAD_CAT_ID":28912,"ELEMENT_SET_NO":999,"REV_AT_EPOCH":593,"BSTAR":0,"MEAN_MOTION_DOT":1.12e-6,"MEAN_MOTION_DDOT":0},{"OBJECT_NAME":"DMSP 5D-3 F17 (USA 191)","OBJECT_ID":"2006-050A","EPOCH":"2026-03-02T23:02:49.297056","MEAN_MOTION":14.14960329,"ECCENTRICITY":0.00101392,"INCLINATION":98.7411,"RA_OF_ASC_NODE":70.6923,"ARG_OF_PERICENTER":6.1625,"MEAN_ANOMALY":353.9672,"EPHEMERIS_TYPE":0,"CLASSIFICATION_TYPE":"U","NORAD_CAT_ID":29522,"ELEMENT_SET_NO":999,"REV_AT_EPOCH":99739,"BSTAR":0.00013114542,"MEAN_MOTION_DOT":2.1e-6,"MEAN_MOTION_DDOT":0},{"OBJECT_NAME":"FENGYUN 3A","OBJECT_ID":"2008-026A","EPOCH":"2026-03-02T19:51:54.868896","MEAN_MOTION":14.19543813,"ECCENTRICITY":0.00098301,"INCLINATION":98.679,"RA_OF_ASC_NODE":4.7076,"ARG_OF_PERICENTER":75.9488,"MEAN_ANOMALY":284.2781,"EPHEMERIS_TYPE":0,"CLASSIFICATION_TYPE":"U","NORAD_CAT_ID":32958,"ELEMENT_SET_NO":999,"REV_AT_EPOCH":92031,"BSTAR":7.6469269e-5,"MEAN_MOTION_DOT":1.18e-6,"MEAN_MOTION_DDOT":0},{"OBJECT_NAME":"GOES 14","OBJECT_ID":"2009-033A","EPOCH":"2026-03-02T19:20:38.685984","MEAN_MOTION":1.00123439,"ECCENTRICITY":0.00021641,"INCLINATION":1.4148,"RA_OF_ASC_NODE":84.444,"ARG_OF_PERICENTER":295.3222,"MEAN_ANOMALY":273.6553,"EPHEMERIS_TYPE":0,"CLASSIFICATION_TYPE":"U","NORAD_CAT_ID":35491,"ELEMENT_SET_NO":999,"REV_AT_EPOCH":552,"BSTAR":0,"MEAN_MOTION_DOT":1.14e-6,"MEAN_MOTION_DDOT":0},{"OBJECT_NAME":"DMSP 5D-3 F18 (USA 210)","OBJECT_ID":"2009-057A","EPOCH":"2026-03-02T22:09:35.641152","MEAN_MOTION":14.14830688,"ECCENTRICITY":0.00107503,"INCLINATION":98.8952,"RA_OF_ASC_NODE":42.9758,"ARG_OF_PERICENTER":187.6921,"MEAN_ANOMALY":172.4089,"EPHEMERIS_TYPE":0,"CLASSIFICATION_TYPE":"U","NORAD_CAT_ID":35951,"ELEMENT_SET_NO":999,"REV_AT_EPOCH":84456,"BSTAR":0.00018274718,"MEAN_MOTION_DOT":3.08e-6,"MEAN_MOTION_DDOT":0},{"OBJECT_NAME":"EWS-G2 (GOES 15)","OBJECT_ID":"2010-008A","EPOCH":"2026-03-02T20:39:12.009024","MEAN_MOTION":1.00269153,"ECCENTRICITY":0.00016548,"INCLINATION":1.0052,"RA_OF_ASC_NODE":85.1762,"ARG_OF_PERICENTER":24.0248,"MEAN_ANOMALY":64.7263,"EPHEMERIS_TYPE":0,"CLASSIFICATION_TYPE":"U","NORAD_CAT_ID":36411,"ELEMENT_SET_NO":999,"REV_AT_EPOCH":5857,"BSTAR":0,"MEAN_MOTION_DOT":5.0e-8,"MEAN_MOTION_DDOT":0},{"OBJECT_NAME":"COMS 1","OBJECT_ID":"2010-032A","EPOCH":"2026-03-02T19:37:08.073984","MEAN_MOTION":1.0027253,"ECCENTRICITY":0.00011637,"INCLINATION":4.532,"RA_OF_ASC_NODE":76.8967,"ARG_OF_PERICENTER":272.6803,"MEAN_ANOMALY":233.4605,"EPHEMERIS_TYPE":0,"CLASSIFICATION_TYPE":"U","NORAD_CAT_ID":36744,"ELEMENT_SET_NO":999,"REV_AT_EPOCH":5002,"BSTAR":0,"MEAN_MOTION_DOT":-3.59e-6,"MEAN_MOTION_DDOT":0},{"OBJECT_NAME":"FENGYUN 3B","OBJECT_ID":"2010-059A","EPOCH":"2026-03-02T22:47:14.506080","MEAN_MOTION":14.14814091,"ECCENTRICITY":0.00229523,"INCLINATION":98.9785,"RA_OF_ASC_NODE":107.4452,"ARG_OF_PERICENTER":126.3417,"MEAN_ANOMALY":332.7903,"EPHEMERIS_TYPE":0,"CLASSIFICATION_TYPE":"U","NORAD_CAT_ID":37214,"ELEMENT_SET_NO":999,"REV_AT_EPOCH":79240,"BSTAR":-0.00012548738,"MEAN_MOTION_DOT":-2.88e-6,"MEAN_MOTION_DDOT":0},{"OBJECT_NAME":"SUOMI NPP","OBJECT_ID":"2011-061A","EPOCH":"2026-03-02T21:44:56.213952","MEAN_MOTION":14.19541223,"ECCENTRICITY":4.513e-5,"INCLINATION":98.7862,"RA_OF_ASC_NODE":3.5631,"ARG_OF_PERICENTER":295.5056,"MEAN_ANOMALY":64.6073,"EPHEMERIS_TYPE":0,"CLASSIFICATION_TYPE":"U","NORAD_CAT_ID":37849,"ELEMENT_SET_NO":999,"REV_AT_EPOCH":74336,"BSTAR":6.4081588e-5,"MEAN_MOTION_DOT":9.1e-7,"MEAN_MOTION_DDOT":0},{"OBJECT_NAME":"METEOSAT-10 (MSG-3)","OBJECT_ID":"2012-035B","EPOCH":"2026-03-02T17:32:21.806016","MEAN_MOTION":1.00276905,"ECCENTRICITY":0.00024871,"INCLINATION":4.4198,"RA_OF_ASC_NODE":61.47,"ARG_OF_PERICENTER":292.1297,"MEAN_ANOMALY":70.2445,"EPHEMERIS_TYPE":0,"CLASSIFICATION_TYPE":"U","NORAD_CAT_ID":38552,"ELEMENT_SET_NO":999,"REV_AT_EPOCH":4979,"BSTAR":0,"MEAN_MOTION_DOT":-1.9e-7,"MEAN_MOTION_DDOT":0},{"OBJECT_NAME":"METOP-B","OBJECT_ID":"2012-049A","EPOCH":"2026-03-02T21:34:05.659968","MEAN_MOTION":14.2144202,"ECCENTRICITY":0.00012415,"INCLINATION":98.6656,"RA_OF_ASC_NODE":115.4497,"ARG_OF_PERICENTER":303.3818,"MEAN_ANOMALY":56.7241,"EPHEMERIS_TYPE":0,"CLASSIFICATION_TYPE":"U","NORAD_CAT_ID":38771,"ELEMENT_SET_NO":999,"REV_AT_EPOCH":69816,"BSTAR":8.5370968e-5,"MEAN_MOTION_DOT":1.43e-6,"MEAN_MOTION_DDOT":0},{"OBJECT_NAME":"INSAT-3D","OBJECT_ID":"2013-038B","EPOCH":"2026-03-02T14:18:38.856384","MEAN_MOTION":1.00269239,"ECCENTRICITY":0.0002164,"INCLINATION":1.6508,"RA_OF_ASC_NODE":83.9377,"ARG_OF_PERICENTER":236.3244,"MEAN_ANOMALY":184.2293,"EPHEMERIS_TYPE":0,"CLASSIFICATION_TYPE":"U","NORAD_CAT_ID":39216,"ELEMENT_SET_NO":999,"REV_AT_EPOCH":4601,"BSTAR":0,"MEAN_MOTION_DOT":-3.56e-6,"MEAN_MOTION_DDOT":0},{"OBJECT_NAME":"FENGYUN 3C","OBJECT_ID":"2013-052A","EPOCH":"2026-03-02T23:04:52.915584","MEAN_MOTION":14.15726371,"ECCENTRICITY":0.00141678,"INCLINATION":98.488,"RA_OF_ASC_NODE":40.7737,"ARG_OF_PERICENTER":333.4613,"MEAN_ANOMALY":26.5835,"EPHEMERIS_TYPE":0,"CLASSIFICATION_TYPE":"U","NORAD_CAT_ID":39260,"ELEMENT_SET_NO":999,"REV_AT_EPOCH":64353,"BSTAR":0.00010275011,"MEAN_MOTION_DOT":1.6e-6,"MEAN_MOTION_DDOT":0},{"OBJECT_NAME":"METEOR-M 2","OBJECT_ID":"2014-037A","EPOCH":"2026-03-02T22:13:06.030336","MEAN_MOTION":14.21425205,"ECCENTRICITY":0.00057594,"INCLINATION":98.5008,"RA_OF_ASC_NODE":41.4863,"ARG_OF_PERICENTER":357.5035,"MEAN_ANOMALY":2.6114,"EPHEMERIS_TYPE":0,"CLASSIFICATION_TYPE":"U","NORAD_CAT_ID":40069,"ELEMENT_SET_NO":999,"REV_AT_EPOCH":60422,"BSTAR":9.5924545e-5,"MEAN_MOTION_DOT":1.68e-6,"MEAN_MOTION_DDOT":0},{"OBJECT_NAME":"HIMAWARI-8","OBJECT_ID":"2014-060A","EPOCH":"2026-03-02T20:00:38.439072","MEAN_MOTION":1.00270021,"ECCENTRICITY":8.683e-5,"INCLINATION":0.0178,"RA_OF_ASC_NODE":119.6241,"ARG_OF_PERICENTER":185.8972,"MEAN_ANOMALY":295.8861,"EPHEMERIS_TYPE":0,"CLASSIFICATION_TYPE":"U","NORAD_CAT_ID":40267,"ELEMENT_SET_NO":999,"REV_AT_EPOCH":4169,"BSTAR":0,"MEAN_MOTION_DOT":-2.92e-6,"MEAN_MOTION_DDOT":0},{"OBJECT_NAME":"FENGYUN 2G","OBJECT_ID":"2014-090A","EPOCH":"2026-03-02T23:08:48.467904","MEAN_MOTION":1.00274984,"ECCENTRICITY":0.00020117,"INCLINATION":5.3702,"RA_OF_ASC_NODE":74.1026,"ARG_OF_PERICENTER":153.1126,"MEAN_ANOMALY":20.379,"EPHEMERIS_TYPE":0,"CLASSIFICATION_TYPE":"U","NORAD_CAT_ID":40367,"ELEMENT_SET_NO":999,"REV_AT_EPOCH":4093,"BSTAR":0,"MEAN_MOTION_DOT":-3.16e-6,"MEAN_MOTION_DDOT":0}]
